start=new Date('2022-10-26T00:00:00.000Z').valueOf();
sats=[{"ARG_OF_PERICENTER":"30.0366","TLE_LINE2":"2 52697  53.2195 276.9815 0002568  30.0366 330.0774 15.08832984 25192","PERIOD":"95.438","INCLINATION":"53.2195","MEAN_ANOMALY":"330.0774","MEAN_MOTION_DOT":"-0.00001673","ELEMENT_SET_NO":"999","TIME_SYSTEM":"UTC","FILE":"3633075","MEAN_ELEMENT_THEORY":"SGP4","OBJECT_ID":"2022-053AT","OBJECT_NAME":"STARLINK-4018","DECAY_DATE":null,"CLASSIFICATION_TYPE":"U","REV_AT_EPOCH":"2519","EPOCH":"2022-10-25T07:31:37.656192","SEMIMAJOR_AXIS":"6917.902","RA_OF_ASC_NODE":"276.9815","COUNTRY_CODE":"US","SITE":"AFETR","TLE_LINE1":"1 52697U 22053AT  22298.31363028 -.00001673  00000-0 -87020-4 0  9990","MEAN_MOTION":"15.08832984","CENTER_NAME":"EARTH","NORAD_CAT_ID":"52697","LAUNCH_DATE":"2022-05-18","MEAN_MOTION_DDOT":"0.0000000000000","OBJECT_TYPE":"PAYLOAD","EPHEMERIS_TYPE":"0","ECCENTRICITY":"0.00025680","BSTAR":"-0.00008702000000","RCS_SIZE":"LARGE","APOAPSIS":"541.543","GP_ID":"216126058","REF_FRAME":"TEME","PERIAPSIS":"537.990"},{"ARG_OF_PERICENTER":"38.2186","MEAN_ANOMALY":"321.8969","INCLINATION":"53.2176","PERIOD":"95.437","TLE_LINE2":"2 52698  53.2176 275.4408 0002296  38.2186 321.8969 15.08843945 25230","MEAN_MOTION_DOT":"0.00000034","TIME_SYSTEM":"UTC","ELEMENT_SET_NO":"999","MEAN_ELEMENT_THEORY":"SGP4","FILE":"3633327","OBJECT_ID":"2022-053AU","CLASSIFICATION_TYPE":"U","DECAY_DATE":null,"OBJECT_NAME":"STARLINK-4030","EPOCH":"2022-10-25T15:44:27.363264","REV_AT_EPOCH":"2523","COUNTRY_CODE":"US","RA_OF_ASC_NODE":"275.4408","SEMIMAJOR_AXIS":"6917.868","MEAN_MOTION":"15.08843945","CENTER_NAME":"EARTH","SITE":"AFETR","TLE_LINE1":"1 52698U 22053AU  22298.65587226  .00000034  00000-0  20248-4 0  9993","LAUNCH_DATE":"2022-05-18","NORAD_CAT_ID":"52698","ECCENTRICITY":"0.00022960","EPHEMERIS_TYPE":"0","OBJECT_TYPE":"PAYLOAD","MEAN_MOTION_DDOT":"0.0000000000000","BSTAR":"0.00002024800000","RCS_SIZE":"LARGE","PERIAPSIS":"538.145","GP_ID":"216157099","REF_FRAME":"TEME","APOAPSIS":"541.322"},{"ELEMENT_SET_NO":"999","TIME_SYSTEM":"UTC","MEAN_MOTION_DOT":"-0.00001313","MEAN_ANOMALY":"326.6167","INCLINATION":"53.2154","TLE_LINE2":"2 52699  53.2154 265.5506 0002581  33.4988 326.6167 15.08834922 25395","PERIOD":"95.438","ARG_OF_PERICENTER":"33.4988","EPOCH":"2022-10-25T15:08:40.732800","REV_AT_EPOCH":"2539","CLASSIFICATION_TYPE":"U","OBJECT_NAME":"STARLINK-3987","DECAY_DATE":null,"OBJECT_ID":"2022-053AV","MEAN_ELEMENT_THEORY":"SGP4","FILE":"3633327","NORAD_CAT_ID":"52699","LAUNCH_DATE":"2022-05-18","SITE":"AFETR","TLE_LINE1":"1 52699U 22053AV  22298.63102700 -.00001313  00000-0 -64370-4 0  9999","CENTER_NAME":"EARTH","MEAN_MOTION":"15.08834922","RA_OF_ASC_NODE":"265.5506","COUNTRY_CODE":"US","SEMIMAJOR_AXIS":"6917.896","PERIAPSIS":"537.975","APOAPSIS":"541.546","REF_FRAME":"TEME","GP_ID":"216156857","BSTAR":"-0.00006437000000","RCS_SIZE":"LARGE","OBJECT_TYPE":"PAYLOAD","EPHEMERIS_TYPE":"0","ECCENTRICITY":"0.00025810","MEAN_MOTION_DDOT":"0.0000000000000"},{"OBJECT_ID":"2022-053AW","FILE":"3633075","MEAN_ELEMENT_THEORY":"SGP4","REV_AT_EPOCH":"2519","EPOCH":"2022-10-25T07:36:55.901088","DECAY_DATE":null,"OBJECT_NAME":"STARLINK-4034","CLASSIFICATION_TYPE":"U","TLE_LINE2":"2 52700  53.2182 276.9586 0002197  42.7633 317.3529 15.08824972 25197","PERIOD":"95.439","INCLINATION":"53.2182","MEAN_ANOMALY":"317.3529","ARG_OF_PERICENTER":"42.7633","ELEMENT_SET_NO":"999","TIME_SYSTEM":"UTC","MEAN_MOTION_DOT":"-0.00001361","MEAN_MOTION_DDOT":"0.0000000000000","OBJECT_TYPE":"PAYLOAD","EPHEMERIS_TYPE":"0","ECCENTRICITY":"0.00021970","APOAPSIS":"541.311","GP_ID":"216126222","REF_FRAME":"TEME","PERIAPSIS":"538.271","RCS_SIZE":"LARGE","BSTAR":"-0.00006747100000","SEMIMAJOR_AXIS":"6917.926","RA_OF_ASC_NODE":"276.9586","COUNTRY_CODE":"US","NORAD_CAT_ID":"52700","LAUNCH_DATE":"2022-05-18","SITE":"AFETR","TLE_LINE1":"1 52700U 22053AW  22298.31731367 -.00001361  00000-0 -67471-4 0  9992","MEAN_MOTION":"15.08824972","CENTER_NAME":"EARTH"},{"CLASSIFICATION_TYPE":"U","OBJECT_NAME":"STARLINK-4003","DECAY_DATE":null,"EPOCH":"2022-10-25T17:54:54.379008","REV_AT_EPOCH":"2548","MEAN_ELEMENT_THEORY":"SGP4","FILE":"3633327","OBJECT_ID":"2022-053AX","MEAN_MOTION_DOT":"-0.00001451","ELEMENT_SET_NO":"999","TIME_SYSTEM":"UTC","ARG_OF_PERICENTER":"38.6681","INCLINATION":"53.2179","MEAN_ANOMALY":"321.4456","TLE_LINE2":"2 52701  53.2179 260.0450 0002027  38.6681 321.4456 15.08824884 25486","PERIOD":"95.439","BSTAR":"-0.00007311000000","RCS_SIZE":"LARGE","PERIAPSIS":"538.389","APOAPSIS":"541.194","GP_ID":"216156662","REF_FRAME":"TEME","OBJECT_TYPE":"PAYLOAD","EPHEMERIS_TYPE":"0","ECCENTRICITY":"0.00020270","MEAN_MOTION_DDOT":"0.0000000000000","TLE_LINE1":"1 52701U 22053AX  22298.74646272 -.00001451  00000-0 -73110-4 0  9997","SITE":"AFETR","MEAN_MOTION":"15.08824884","CENTER_NAME":"EARTH","NORAD_CAT_ID":"52701","LAUNCH_DATE":"2022-05-18","RA_OF_ASC_NODE":"260.0450","COUNTRY_CODE":"US","SEMIMAJOR_AXIS":"6917.927"},{"OBJECT_ID":"2022-053AY","MEAN_ELEMENT_THEORY":"SGP4","FILE":"3633075","EPOCH":"2022-10-25T09:01:42.653568","REV_AT_EPOCH":"2520","CLASSIFICATION_TYPE":"U","DECAY_DATE":null,"OBJECT_NAME":"STARLINK-4033","MEAN_ANOMALY":"316.1148","INCLINATION":"53.2184","PERIOD":"95.438","TLE_LINE2":"2 52702  53.2184 276.7038 0002104  44.0011 316.1148 15.08832704 25202","ARG_OF_PERICENTER":"44.0011","TIME_SYSTEM":"UTC","ELEMENT_SET_NO":"999","MEAN_MOTION_DOT":"-0.00001091","ECCENTRICITY":"0.00021040","OBJECT_TYPE":"PAYLOAD","EPHEMERIS_TYPE":"0","MEAN_MOTION_DDOT":"0.0000000000000","PERIAPSIS":"538.312","GP_ID":"216126371","REF_FRAME":"TEME","APOAPSIS":"541.223","BSTAR":"-0.00005046700000","RCS_SIZE":"LARGE","COUNTRY_CODE":"US","RA_OF_ASC_NODE":"276.7038","SEMIMAJOR_AXIS":"6917.903","LAUNCH_DATE":"2022-05-18","NORAD_CAT_ID":"52702","MEAN_MOTION":"15.08832704","CENTER_NAME":"EARTH","SITE":"AFETR","TLE_LINE1":"1 52702U 22053AY  22298.37618812 -.00001091  00000-0 -50467-4 0  9996"},{"DECAY_DATE":null,"OBJECT_NAME":"STARLINK-4020","CLASSIFICATION_TYPE":"U","REV_AT_EPOCH":"2418","EPOCH":"2022-10-25T14:28:13.520064","FILE":"3633327","MEAN_ELEMENT_THEORY":"SGP4","OBJECT_ID":"2022-053AZ","MEAN_MOTION_DOT":"-0.00001214","TIME_SYSTEM":"UTC","ELEMENT_SET_NO":"999","ARG_OF_PERICENTER":"30.7576","PERIOD":"95.438","TLE_LINE2":"2 52703  53.2179 260.6875 0002420  30.7576 329.3557 15.08830579 24181","INCLINATION":"53.2179","MEAN_ANOMALY":"329.3557","RCS_SIZE":"MEDIUM","BSTAR":"-0.00005816000000","REF_FRAME":"TEME","GP_ID":"216157275","APOAPSIS":"541.448","PERIAPSIS":"538.100","MEAN_MOTION_DDOT":"0.0000000000000","ECCENTRICITY":"0.00024200","EPHEMERIS_TYPE":"0","OBJECT_TYPE":"PAYLOAD","MEAN_MOTION":"15.08830579","CENTER_NAME":"EARTH","SITE":"AFETR","TLE_LINE1":"1 52703U 22053AZ  22298.60293426 -.00001214  00000-0 -58160-4 0  9998","LAUNCH_DATE":"2022-05-18","NORAD_CAT_ID":"52703","SEMIMAJOR_AXIS":"6917.909","COUNTRY_CODE":"US","RA_OF_ASC_NODE":"260.6875"},{"SEMIMAJOR_AXIS":"6917.937","RA_OF_ASC_NODE":"259.4329","COUNTRY_CODE":"US","NORAD_CAT_ID":"52704","LAUNCH_DATE":"2022-05-18","SITE":"AFETR","TLE_LINE1":"1 52704U 22053BA  22298.88262165  .00000164  00000-0  28441-4 0  9995","MEAN_MOTION":"15.08821341","CENTER_NAME":"EARTH","MEAN_MOTION_DDOT":"0.0000000000000","OBJECT_TYPE":"PAYLOAD","EPHEMERIS_TYPE":"0","ECCENTRICITY":"0.00023290","APOAPSIS":"541.414","REF_FRAME":"TEME","GP_ID":"216157889","PERIAPSIS":"538.191","BSTAR":"0.00002844100000","RCS_SIZE":"LARGE","TLE_LINE2":"2 52704  53.2167 259.4329 0002329  31.3167 328.7963 15.08821341 25508","PERIOD":"95.439","MEAN_ANOMALY":"328.7963","INCLINATION":"53.2167","ARG_OF_PERICENTER":"31.3167","ELEMENT_SET_NO":"999","TIME_SYSTEM":"UTC","MEAN_MOTION_DOT":"0.00000164","OBJECT_ID":"2022-053BA","FILE":"3633327","MEAN_ELEMENT_THEORY":"SGP4","REV_AT_EPOCH":"2550","EPOCH":"2022-10-25T21:10:58.510560","OBJECT_NAME":"STARLINK-3999","DECAY_DATE":null,"CLASSIFICATION_TYPE":"U"},{"OBJECT_TYPE":"PAYLOAD","EPHEMERIS_TYPE":"0","ECCENTRICITY":"0.00025360","MEAN_MOTION_DDOT":"0.0000000000000","PERIAPSIS":"537.999","APOAPSIS":"541.507","REF_FRAME":"TEME","GP_ID":"216157080","RCS_SIZE":"LARGE","BSTAR":"0.00008139400000","RA_OF_ASC_NODE":"260.6755","COUNTRY_CODE":"US","SEMIMAJOR_AXIS":"6917.888","NORAD_CAT_ID":"52705","LAUNCH_DATE":"2022-05-18","SITE":"AFETR","TLE_LINE1":"1 52705U 22053BB  22298.60660989  .00001007  00000-0  81394-4 0  9995","MEAN_MOTION":"15.08837492","CENTER_NAME":"EARTH","OBJECT_ID":"2022-053BB","MEAN_ELEMENT_THEORY":"SGP4","FILE":"3633327","EPOCH":"2022-10-25T14:33:31.094496","REV_AT_EPOCH":"2546","CLASSIFICATION_TYPE":"U","OBJECT_NAME":"STARLINK-3844","DECAY_DATE":null,"INCLINATION":"53.2181","MEAN_ANOMALY":"327.0133","TLE_LINE2":"2 52705  53.2181 260.6755 0002536  33.1018 327.0133 15.08837492 25467","PERIOD":"95.438","ARG_OF_PERICENTER":"33.1018","ELEMENT_SET_NO":"999","TIME_SYSTEM":"UTC","MEAN_MOTION_DOT":"0.00001007"},{"NORAD_CAT_ID":"52706","LAUNCH_DATE":"2022-05-18","TLE_LINE1":"1 52706U 22053BC  22298.41156684 -.00001355  00000-0 -67014-4 0  9998","SITE":"AFETR","MEAN_MOTION":"15.08831879","CENTER_NAME":"EARTH","SEMIMAJOR_AXIS":"6917.905","RA_OF_ASC_NODE":"261.5494","COUNTRY_CODE":"US","APOAPSIS":"541.466","GP_ID":"216126606","REF_FRAME":"TEME","PERIAPSIS":"538.074","BSTAR":"-0.00006701400000","RCS_SIZE":"LARGE","MEAN_MOTION_DDOT":"0.0000000000000","EPHEMERIS_TYPE":"0","OBJECT_TYPE":"PAYLOAD","ECCENTRICITY":"0.00024520","ELEMENT_SET_NO":"999","TIME_SYSTEM":"UTC","MEAN_MOTION_DOT":"-0.00001355","TLE_LINE2":"2 52706  53.2174 261.5494 0002452  33.3022 326.8124 15.08831879 25431","PERIOD":"95.438","MEAN_ANOMALY":"326.8124","INCLINATION":"53.2174","ARG_OF_PERICENTER":"33.3022","REV_AT_EPOCH":"2543","EPOCH":"2022-10-25T09:52:39.374976","OBJECT_NAME":"STARLINK-3970","DECAY_DATE":null,"CLASSIFICATION_TYPE":"U","OBJECT_ID":"2022-053BC","FILE":"3633075","MEAN_ELEMENT_THEORY":"SGP4"}];
